NORAD_CAT_ID,OBJECT_NAME,OBJECT_TYPE,EPOCH,MEAN_MOTION,ECCENTRICITY,INCLINATION,RA_OF_ASC_NODE,ARG_OF_PERICENTER,MEAN_ANOMALY,BSTAR,MEAN_MOTION_DOT,MEAN_MOTION_DDOT,TLE_LINE0,TLE_LINE1,TLE_LINE2,SEMIMAJOR_AXIS,PERIOD,APOGEE,PERIGEE,DECAYED
50170.0,STARLINK-3245,PAYLOAD,2023-05-24 00:13:37,15.08831967,0.0001035,53.2165,151.1261,90.6722,269.4389,7.0246e-05,8.3e-06,0.0,0 STARLINK-3245,1 50170U 21125Q   23144.00946432  .00000830  00000-0  70246-4 0  9990,2 50170  53.2165 151.1261 0001035  90.6722 269.4389 15.08831967 82020,6917.905,95.438,540.486,539.054,0.0
50170.0,STARLINK-3245,PAYLOAD,2023-05-24 08:10:33,15.08835159,9.99e-05,53.2164,149.6395,90.5677,269.543,7.2315e-05,8.63e-06,0.0,0 STARLINK-3245,1 50170U 21125Q   23144.34066346  .00000863  00000-0  72315-4 0  9999,2 50170  53.2164 149.6395 0000999  90.5677 269.5430 15.08835159 82558,6917.895,95.438,540.451,539.069,0.0
50170.0,STARLINK-3245,PAYLOAD,2023-05-26 04:41:22,15.08828923,9.96e-05,53.2168,141.3148,83.4182,276.6923,-3.1134e-05,-7.83e-06,0.0,0 STARLINK-3245,1 50170U 21125Q   23146.19539488 -.00000783  00000-0 -31134-4 0  9993,2 50170  53.2168 141.3148 0000996  83.4182 276.6923 15.08828923 82351,6917.914,95.438,540.468,539.09,0.0
50170.0,STARLINK-3245,PAYLOAD,2023-05-26 09:27:31,15.08833876,0.0001007,53.2166,140.4216,88.1999,271.9109,-6.5638e-06,-3.92e-06,0.0,0 STARLINK-3245,1 50170U 21125Q   23146.39411160 -.00000392  00000-0 -65638-5 0  9994,2 50170  53.2166 140.4216 0001007  88.1999 271.9109 15.08833876 82860,6917.899,95.438,540.461,539.067,0.0
50170.0,STARLINK-3245,PAYLOAD,2023-05-27 04:32:08,15.08833053,0.0001016,53.2165,136.8529,88.9536,271.1573,8.4773e-05,1.061e-05,0.0,0 STARLINK-3245,1 50170U 21125Q   23147.18898982  .00001061  00000-0  84773-4 0  9995,2 50170  53.2165 136.8529 0001016  88.9536 271.1573 15.08833053 82505,6917.902,95.438,540.469,539.064,0.0
50170.0,STARLINK-3245,PAYLOAD,2023-05-27 15:39:50,15.0883681,0.0001024,53.2165,134.7715,87.025,273.0859,0.00010559,1.393e-05,0.0,0 STARLINK-3245,1 50170U 21125Q   23147.65266838  .00001393  00000-0  10559-3 0  9994,2 50170  53.2165 134.7715 0001024  87.0250 273.0859 15.08836810 83054,6917.89,95.438,540.464,539.047,0.0
50170.0,STARLINK-3245,PAYLOAD,2023-05-28 05:58:18,15.08844139,0.0001024,53.2163,132.0959,88.081,272.0299,0.0001079,1.43e-05,0.0,0 STARLINK-3245,1 50170U 21125Q   23148.24882432  .00001430  00000-0  10790-3 0  9993,2 50170  53.2163 132.0959 0001024  88.0810 272.0299 15.08844139 82662,6917.868,95.437,540.441,539.024,0.0
50170.0,STARLINK-3245,PAYLOAD,2023-05-28 15:30:37,15.08839318,0.0001015,53.2161,130.3117,86.5553,273.5555,4.992e-05,5.07e-06,0.0,0 STARLINK-3245,1 50170U 21125Q   23148.64626878  .00000507  00000-0  49920-4 0  9999,2 50170  53.2161 130.3117 0001015  86.5553 273.5555 15.08839318 82725,6917.882,95.438,540.45,539.045,0.0
50170.0,STARLINK-3245,PAYLOAD,2023-05-29 05:49:06,15.08835558,0.0001118,53.2169,127.6367,90.2594,269.8526,2.1012e-06,-2.54e-06,0.0,0 STARLINK-3245,1 50170U 21125Q   23149.24243363 -.00000254  00000-0  21012-5 0  9993,2 50170  53.2169 127.6367 0001118  90.2594 269.8526 15.08835558 83291,6917.894,95.438,540.532,538.986,0.0
50170.0,STARLINK-3245,PAYLOAD,2023-05-29 15:21:24,15.08839182,0.0001155,53.2179,125.853,90.7395,269.3729,-1.3478e-05,-5.02e-06,0.0,0 STARLINK-3245,1 50170U 21125Q   23149.63987215 -.00000502  00000-0 -13478-4 0  9990,2 50170  53.2179 125.8530 0001155  90.7395 269.3729 15.08839182 83353,6917.883,95.438,540.547,538.949,0.0
50170.0,STARLINK-3245,PAYLOAD,2023-05-30 02:29:07,15.08838668,0.0001162,53.218,123.7716,97.4264,262.686,-5.0806e-05,-1.096e-05,0.0,0 STARLINK-3245,1 50170U 21125Q   23150.10355377 -.00001096  00000-0 -50806-4 0  9997,2 50170  53.2180 123.7716 0001162  97.4264 262.6860 15.08838668 82949,6917.884,95.438,540.553,538.946,0.0
50170.0,STARLINK-3245,PAYLOAD,2023-05-30 07:15:16,15.08842981,0.0001246,53.2178,122.8794,99.5734,260.5398,-7.0513e-05,-1.41e-05,0.0,0 STARLINK-3245,1 50170U 21125Q   23150.30227218 -.00001410  00000-0 -70513-4 0  9998,2 50170  53.2178 122.8794 0001246  99.5734 260.5398 15.08842981 83453,6917.871,95.437,540.598,538.874,0.0
50170.0,STARLINK-3245,PAYLOAD,2023-05-31 02:19:53,15.08841046,0.0001283,53.2176,119.3102,89.8412,270.2727,7.171e-05,8.54e-06,0.0,0 STARLINK-3245,1 50170U 21125Q   23151.09714854  .00000854  00000-0  71710-4 0  9991,2 50170  53.2176 119.3102 0001283  89.8412 270.2727 15.08841046 83096,6917.877,95.437,540.63,538.855,0.0
50170.0,STARLINK-3245,PAYLOAD,2023-05-31 07:06:02,15.08845668,0.0001302,53.2176,118.4181,89.7372,270.3769,9.8501e-05,1.28e-05,0.0,0 STARLINK-3245,1 50170U 21125Q   23151.29586476  .00001280  00000-0  98501-4 0  9991,2 50170  53.2176 118.4181 0001302  89.7372 270.3769 15.08845668 83607,6917.863,95.437,540.629,538.827,0.0
50170.0,STARLINK-3245,PAYLOAD,2023-05-31 15:02:58,15.08838713,0.0001268,53.2173,116.9291,88.4225,271.6912,3.2759e-05,2.34e-06,0.0,0 STARLINK-3245,1 50170U 21125Q   23151.62707057  .00000234  00000-0  32759-4 0  9999,2 50170  53.2173 116.9291 0001268  88.4225 271.6912 15.08838713 83655,6917.884,95.438,540.627,538.872,0.0
50170.0,STARLINK-3245,PAYLOAD,2023-06-01 02:10:41,15.08836638,0.0001365,53.2178,114.8495,88.2725,271.8423,3.6479e-05,2.93e-06,0.0,0 STARLINK-3245,1 50170U 21125Q   23152.09075263  .00000293  00000-0  36479-4 0  9996,2 50170  53.2178 114.8495 0001365  88.2725 271.8423 15.08836638 83242,6917.891,95.438,540.7,538.811,0.0
50170.0,STARLINK-3245,PAYLOAD,2023-06-01 03:46:03,15.08840163,0.0001165,53.2163,114.5499,100.9736,259.1388,3.3398e-05,2.44e-06,0.0,0 STARLINK-3245,1 50170U 21125Q   23152.15698949  .00000244  00000-0  33398-4 0  9998,2 50170  53.2163 114.5499 0001165 100.9736 259.1388 15.08840163 83730,6917.88,95.438,540.551,538.939,0.0
50170.0,STARLINK-3245,PAYLOAD,2023-06-02 03:36:51,15.08839971,0.0001163,53.217,110.0894,101.1459,258.9664,-4.2423e-05,-9.63e-06,0.0,0 STARLINK-3245,1 50170U 21125Q   23153.15059226 -.00000963  00000-0 -42423-4 0  9997,2 50170  53.2170 110.0894 0001163 101.1459 258.9664 15.08839971 83404,6917.88,95.438,540.55,538.941,0.0
50170.0,STARLINK-3245,PAYLOAD,2023-06-03 06:38:24,15.08840542,0.0001155,53.2166,105.0357,92.1989,267.9136,4.5722e-05,4.4e-06,0.0,0 STARLINK-3245,1 50170U 21125Q   23154.27666979  .00000440  00000-0  45722-4 0  9993,2 50170  53.2166 105.0357 0001155  92.1989 267.9136 15.08840542 83573,6917.879,95.438,540.543,538.945,0.0
50170.0,STARLINK-3245,PAYLOAD,2023-06-04 06:29:11,15.08840244,0.0001108,53.2172,100.574,89.5871,270.5248,4.7964e-05,4.76e-06,0.0,0 STARLINK-3245,1 50170U 21125Q   23155.27027125  .00000476  00000-0  47964-4 0  9997,2 50170  53.2172 100.5740 0001108  89.5871 270.5248 15.08840244 84208,6917.88,95.438,540.511,538.978,0.0
50170.0,STARLINK-3245,PAYLOAD,2023-06-04 20:47:40,15.08834476,0.0001159,53.2179,97.8984,91.1492,268.9633,-2.2284e-05,-6.42e-06,0.0,0 STARLINK-3245,1 50170U 21125Q   23155.86643856 -.00000642  00000-0 -22284-4 0  9992,2 50170  53.2179  97.8984 0001159  91.1492 268.9633 15.08834476 84295,6917.897,95.438,540.564,538.96,0.0
50170.0,STARLINK-3245,PAYLOAD,2023-06-05 03:09:12,15.08837434,0.0001311,53.2187,96.7145,106.4094,253.7042,1.7594e-05,-8e-08,0.0,0 STARLINK-3245,1 50170U 21125Q   23156.13139594 -.00000008  00000-0  17594-4 0  9995,2 50170  53.2187  96.7145 0001311 106.4094 253.7042 15.08837434 83853,6917.888,95.438,540.66,538.846,0.0
50170.0,STARLINK-3245,PAYLOAD,2023-06-05 12:41:31,15.08838421,0.0001164,53.2183,94.9296,95.6598,264.4527,-5.989e-05,-1.241e-05,0.0,0 STARLINK-3245,1 50170U 21125Q   23156.52883869 -.00001241  00000-0 -59890-4 0  9995,2 50170  53.2183  94.9296 0001164  95.6598 264.4527 15.08838421 84394,6917.885,95.438,540.555,538.945,0.0
50170.0,STARLINK-3245,PAYLOAD,2023-06-06 02:59:59,15.08839327,0.0001152,53.2183,92.2531,102.1,258.0121,2.6823e-05,1.39e-06,0.0,0 STARLINK-3245,1 50170U 21125Q   23157.12499714  .00000139  00000-0  26823-4 0  9997,2 50170  53.2183  92.2531 0001152 102.1000 258.0121 15.08839327 84481,6917.882,95.438,540.544,538.951,0.0
50170.0,STARLINK-3245,PAYLOAD,2023-06-06 18:53:51,15.08831248,0.0001106,53.2181,89.2772,93.709,266.4028,1.8632e-05,9e-08,0.0,0 STARLINK-3245,1 50170U 21125Q   23157.78740379  .00000009  00000-0  18632-4 0  9990,2 50170  53.2181  89.2772 0001106  93.7090 266.4028 15.08831248 84107,6917.907,95.438,540.537,539.007,0.0
50170.0,STARLINK-3245,PAYLOAD,2023-06-07 04:26:09,15.0884221,0.0001094,53.2181,87.4927,91.3894,268.7224,5.8476e-05,6.43e-06,0.0,0 STARLINK-3245,1 50170U 21125Q   23158.18483709  .00000643  00000-0  58476-4 0  9990,2 50170  53.2181  87.4927 0001094  91.3894 268.7224 15.08842210 84161,6917.874,95.437,540.495,538.982,0.0
50170.0,STARLINK-3245,PAYLOAD,2023-06-08 01:06:11,15.08823739,0.0001155,53.2185,83.6273,99.1879,260.9244,0.00017436,2.487e-05,0.0,0 STARLINK-3245,1 50170U 21125Q   23159.04596801  .00002487  00000-0  17436-3 0  9992,2 50170  53.2185  83.6273 0001155  99.1879 260.9244 15.08823739 84299,6917.93,95.439,540.594,538.996,0.0
50170.0,STARLINK-3245,PAYLOAD,2023-06-08 02:41:34,15.08838388,0.0001114,53.2188,83.3295,94.8974,265.2146,4.6488e-05,4.52e-06,0.0,0 STARLINK-3245,1 50170U 21125Q   23159.11220163  .00000452  00000-0  46488-4 0  9995,2 50170  53.2188  83.3295 0001114  94.8974 265.2146 15.08838388 84303,6917.885,95.438,540.521,538.98,0.0
50170.0,STARLINK-3245,PAYLOAD,2023-06-09 04:07:44,15.08845106,0.0001215,53.2186,78.5703,95.1937,264.9194,5.6385e-05,6.1e-06,0.0,0 STARLINK-3245,1 50170U 21125Q   23160.17203833  .00000610  00000-0  56385-4 0  9991,2 50170  53.2186  78.5703 0001215  95.1937 264.9194 15.08845106 84468,6917.865,95.437,540.57,538.889,0.0
50170.0,STARLINK-3245,PAYLOAD,2023-06-09 12:04:40,15.08841185,0.0001218,53.218,77.0835,93.4331,266.68,2.8295e-05,1.63e-06,0.0,0 STARLINK-3245,1 50170U 21125Q   23160.50324108  .00000163  00000-0  28295-4 0  9999,2 50170  53.2180  77.0835 0001218  93.4331 266.6800 15.08841185 84998,6917.877,95.437,540.584,538.899,0.0
